STARLINK-2222
1 18572C 21041V   21326.13419296  .00000455  00000-0  30444-4 0  3260
2 18572  53.0547 343.1324 0001620  59.3296  43.5579 15.06407972    10
